CTC1_L_00322016-03
1 52311U 25968PO  26037.47804398  .00000000  00000+0  00000-0 0  9992
2 52311  45.0000 180.0000 0000000   0.0000   0.0000 14.51731110    17
CTC1_L_00322016-04
1 52312U 24183JY  26037.47804398  .00000000  00000+0  00000-0 0  9991
2 52312  45.0000 180.0000 0000000   0.0000  90.0000 14.51731110    17
CTC1_L_00322017-01
1 52313U 22955SC  26037.47804398  .00000000  00000+0  00000-0 0  9997
2 52313  45.0000 192.0000 0000000   0.0000 192.0000 14.51731110    14
CTC1_L_00322017-02
1 52314U 24631UC  26037.47804398  .00000000  00000+0  00000-0 0  9991
2 52314  45.0000 192.0000 0000000   0.0000 282.0000 14.51731110    15
CTC1_L_00322017-03
1 52315U 26424EL  26037.47804398  .00000000  00000+0  00000-0 0  9994
2 52315  45.0000 192.0000 0000000   0.0000  12.0000 14.51731110    17
CTC1_L_00322017-04
1 52316U 24702ZY  26037.47804398  .00000000  00000+0  00000-0 0  9992
2 52316  45.0000 192.0000 0000000   0.0000 102.0000 14.51731110    18
CTC1_L_00322018-01
1 52317U 23073FN  26037.47804398  .00000000  00000+0  00000-0 0  9993
2 52317  45.0000 204.0000 0000000   0.0000 204.0000 14.51731110    16
CTC1_L_00322018-02
1 52318U 23560HU  26037.47804398  .00000000  00000+0  00000-0 0  9995
2 52318  45.0000 204.0000 0000000   0.0000 294.0000 14.51731110    16
CTC1_L_00322018-03
1 52319U 26463M   26037.47804398  .00000000  00000+0  00000-0 0  9991
2 52319  45.0000 204.0000 0000000   0.0000  24.0000 14.51731110    18
CTC1_L_00322018-04
1 52320U 25557UX  26037.47804398  .00000000  00000+0  00000-0 0  9996
2 52320  45.0000 204.0000 0000000   0.0000 114.0000 14.51731110    10
CTC1_L_00322019-01
1 52321U 26258UG  26037.47804398  .00000000  00000+0  00000-0 0  9996
2 52321  45.0000 216.0000 0000000   0.0000 216.0000 14.51731110    17
CTC1_L_00322019-02
1 52322U 22262RG  26037.47804398  .00000000  00000+0  00000-0 0  9998
2 52322  45.0000 216.0000 0000000   0.0000 306.0000 14.51731110    18
CTC1_L_00322019-03
1 52323U 26496XV  26037.47804398  .00000000  00000+0  00000-0 0  9992
2 52323  45.0000 216.0000 0000000   0.0000  36.0000 14.51731110    19
CTC1_L_00322019-04
1 52324U 25558GC  26037.47804398  .00000000  00000+0  00000-0 0  9991
2 52324  45.0000 216.0000 0000000   0.0000 126.0000 14.51731110    10
CTC1_L_00322020-01
1 52325U 22269MI  26037.47804398  .00000000  00000+0  00000-0 0  9998
2 52325  45.0000 228.0000 0000000   0.0000 228.0000 14.51731110    17
CTC1_L_00322020-02
1 52326U 26339WP  26037.47804398  .00000000  00000+0  00000-0 0  9991
2 52326  45.0000 228.0000 0000000   0.0000 318.0000 14.51731110    18
CTC1_L_00322020-03
1 52327U 25719QR  26037.47804398  .00000000  00000+0  00000-0 0  9993
2 52327  45.0000 228.0000 0000000   0.0000  48.0000 14.51731110    19
CTC1_L_00322020-04
1 52328U 22652B   26037.47804398  .00000000  00000+0  00000-0 0  9997
2 52328  45.0000 228.0000 0000000   0.0000 138.0000 14.51731110    10
CTC1_L_00322021-01
1 52329U 23570BQ  26037.47804398  .00000000  00000+0  00000-0 0  9998
2 52329  45.0000 240.0000 0000000   0.0000 240.0000 14.51731110    19
CTC1_L_00322021-02
1 52330U 26460RV  26037.47804398  .00000000  00000+0  00000-0 0  9991
2 52330  45.0000 240.0000 0000000   0.0000 330.0000 14.51731110    11
CTC1_L_00322021-03
1 52331U 25781G   26037.47804398  .00000000  00000+0  00000-0 0  9997
2 52331  45.0000 240.0000 0000000   0.0000  60.0000 14.51731110    12
CTC1_L_00322021-04
1 52332U 23777UT  26037.47804398  .00000000  00000+0  00000-0 0  9991
2 52332  45.0000 240.0000 0000000   0.0000 150.0000 14.51731110    13
CTC1_L_00322022-01
1 52333U 23739GB  26037.47804398  .00000000  00000+0  00000-0 0  9990
2 52333  45.0000 252.0000 0000000   0.0000 252.0000 14.51731110    10
CTC1_L_00322022-02
1 52334U 24073NC  26037.47804398  .00000000  00000+0  00000-0 0  9993
2 52334  45.0000 252.0000 0000000   0.0000 342.0000 14.51731110    11
CTC1_L_00322022-03
1 52335U 24112DP  26037.47804398  .00000000  00000+0  00000-0 0  9998
2 52335  45.0000 252.0000 0000000   0.0000  72.0000 14.51731110    12
CTC1_L_00322022-04
1 52336U 26460RM  26037.47804398  .00000000  00000+0  00000-0 0  9997
2 52336  45.0000 252.0000 0000000   0.0000 162.0000 14.51731110    13
CTC1_L_00322023-01
1 52337U 24068XW  26037.47804398  .00000000  00000+0  00000-0 0  9990
2 52337  45.0000 264.0000 0000000   0.0000 264.0000 14.51731110    10
CTC1_L_00322023-02
1 52338U 26358TT  26037.47804398  .00000000  00000+0  00000-0 0  9995
2 52338  45.0000 264.0000 0000000   0.0000 354.0000 14.51731110    11
CTC1_L_00322023-03
1 52339U 26501JI  26037.47804398  .00000000  00000+0  00000-0 0  9996
2 52339  45.0000 264.0000 0000000   0.0000  84.0000 14.51731110    12
CTC1_L_00322023-04
1 52340U 22974JB  26037.47804398  .00000000  00000+0  00000-0 0  9998
2 52340  45.0000 264.0000 0000000   0.0000 174.0000 14.51731110    14
CTC1_L_00322024-01
1 52341U 26113ZY  26037.47804398  .00000000  00000+0  00000-0 0  9998
2 52341  45.0000 276.0000 0000000   0.0000 276.0000 14.51731110    11
CTC1_L_00322024-02
1 52342U 26202VD  26037.47804398  .00000000  00000+0  00000-0 0  9998
2 52342  45.0000 276.0000 0000000   0.0000   6.0000 14.51731110    13
CTC1_L_00322024-03
1 52343U 23052GA  26037.47804398  .00000000  00000+0  00000-0 0  9999
2 52343  45.0000 276.0000 0000000   0.0000  96.0000 14.51731110    13
CTC1_L_00322024-04
1 52344U 24610UC  26037.47804398  .00000000  00000+0  00000-0 0  9991
2 52344  45.0000 276.0000 0000000   0.0000 186.0000 14.51731110    14
CTC1_L_00322025-01
1 52345U 24878KE  26037.47804398  .00000000  00000+0  00000-0 0  9998
2 52345  45.0000 288.0000 0000000   0.0000 288.0000 14.51731110    11
CTC1_L_00322025-02
1 52346U 26579FQ  26037.47804398  .00000000  00000+0  00000-0 0  9999
2 52346  45.0000 288.0000 0000000   0.0000  18.0000 14.51731110    13
CTC1_L_00322025-03
1 52347U 25192TM  26037.47804398  .00000000  00000+0  00000-0 0  9990
2 52347  45.0000 288.0000 0000000   0.0000 108.0000 14.51731110    14
CTC1_L_00322025-04
1 52348U 22679ZA  26037.47804398  .00000000  00000+0  00000-0 0  9998
2 52348  45.0000 288.0000 0000000   0.0000 198.0000 14.51731110    14
CTC1_L_00322026-01
1 52349U 25048TM  26037.47804398  .00000000  00000+0  00000-0 0  9992
2 52349  45.0000 300.0000 0000000   0.0000 300.0000 14.51731110    15
CTC1_L_00322026-02
1 52350U 24973OV  26037.47804398  .00000000  00000+0  00000-0 0  9990
2 52350  45.0000 300.0000 0000000   0.0000  30.0000 14.51731110    17
CTC1_L_00322026-03
1 52351U 23905LY  26037.47804398  .00000000  00000+0  00000-0 0  9995
2 52351  45.0000 300.0000 0000000   0.0000 120.0000 14.51731110    18
CTC1_L_00322026-04
1 52352U 24203UC  26037.47804398  .00000000  00000+0  00000-0 0  9998
2 52352  45.0000 300.0000 0000000   0.0000 210.0000 14.51731110    19
CTC1_L_00322027-01
1 52353U 23735ZS  26037.47804398  .00000000  00000+0  00000-0 0  9998
2 52353  45.0000 312.0000 0000000   0.0000 312.0000 14.51731110    16
CTC1_L_00322027-02
1 52354U 22404HC  26037.47804398  .00000000  00000+0  00000-0 0  9991
2 52354  45.0000 312.0000 0000000   0.0000  42.0000 14.51731110    17
CTC1_L_00322027-03
1 52355U 23599RA  26037.47804398  .00000000  00000+0  00000-0 0  9998
2 52355  45.0000 312.0000 0000000   0.0000 132.0000 14.51731110    18
CTC1_L_00322027-04
1 52356U 24892ER  26037.47804398  .00000000  00000+0  00000-0 0  9996
2 52356  45.0000 312.0000 0000000   0.0000 222.0000 14.51731110    19
CTC1_L_00322028-01
1 52357U 22217LV  26037.47804398  .00000000  00000+0  00000-0 0  9996
2 52357  45.0000 324.0000 0000000   0.0000 324.0000 14.51731110    16
CTC1_L_00322028-02
1 52358U 26761IG  26037.47804398  .00000000  00000+0  00000-0 0  9995
2 52358  45.0000 324.0000 0000000   0.0000  54.0000 14.51731110    17
CTC1_L_00322028-03
1 52359U 26821UU  26037.47804398  .00000000  00000+0  00000-0 0  9993
2 52359  45.0000 324.0000 0000000   0.0000 144.0000 14.51731110    18
CTC1_L_00322028-04
1 52360U 24936HU  26037.47804398  .00000000  00000+0  00000-0 0  9990
2 52360  45.0000 324.0000 0000000   0.0000 234.0000 14.51731110    10
CTC1_L_00322029-01
1 52361U 24403DK  26037.47804398  .00000000  00000+0  00000-0 0  9990
2 52361  45.0000 336.0000 0000000   0.0000 336.0000 14.51731110    17
CTC1_L_00322029-02
1 52362U 24151IB  26037.47804398  .00000000  00000+0  00000-0 0  9991
2 52362  45.0000 336.0000 0000000   0.0000  66.0000 14.51731110    18
CTC1_L_00322029-03
1 52363U 25079CO  26037.47804398  .00000000  00000+0  00000-0 0  9992
2 52363  45.0000 336.0000 0000000   0.0000 156.0000 14.51731110    19
CTC1_L_00322029-04
1 52364U 25016GP  26037.47804398  .00000000  00000+0  00000-0 0  9994
2 52364  45.0000 336.0000 0000000   0.0000 246.0000 14.51731110    10
CTC1_L_00322030-01
1 52365U 26982XE  26037.47804398  .00000000  00000+0  00000-0 0  9998
2 52365  45.0000 348.0000 0000000   0.0000 348.0000 14.51731110    17
CTC1_L_00322030-02
1 52366U 26570IV  26037.47804398  .00000000  00000+0  00000-0 0  9992
2 52366  45.0000 348.0000 0000000   0.0000  78.0000 14.51731110    18
CTC1_L_00322030-03
1 52367U 25332IJ  26037.47804398  .00000000  00000+0  00000-0 0  9998
2 52367  45.0000 348.0000 0000000   0.0000 168.0000 14.51731110    19
CTC1_L_00322030-04
1 52368U 26225PE  26037.47804398  .00000000  00000+0  00000-0 0  9991
2 52368  45.0000 348.0000 0000000   0.0000 258.0000 14.51731110    10
